[{"OBJECT_NAME":"CUBEBEL 2 (EU11S)","OBJECT_ID":"2023-091K","EPOCH":"2026-03-09T21:40:29.186112","MEAN_MOTION":15.26706784,"ECCENTRICITY":0.00118653,"INCLINATION":97.517,"RA_OF_ASC_NODE":131.3579,"ARG_OF_PERICENTER":105.889,"MEAN_ANOMALY":254.3657,"EPHEMERIS_TYPE":0,"CLASSIFICATION_TYPE":"U","NORAD_CAT_ID":57175,"ELEMENT_SET_NO":999,"REV_AT_EPOCH":14914,"BSTAR":0.00056688644,"MEAN_MOTION_DOT":0.00014859,"MEAN_MOTION_DDOT":0},{"OBJECT_NAME":"STARLINK-34095","OBJECT_ID":"2025-092F","EPOCH":"2026-03-09T07:42:56.289312","MEAN_MOTION":15.27604081,"ECCENTRICITY":7.723e-5,"INCLINATION":42.9993,"RA_OF_ASC_NODE":175.0353,"ARG_OF_PERICENTER":247.0553,"MEAN_ANOMALY":113.0217,"EPHEMERIS_TYPE":0,"CLASSIFICATION_TYPE":"U","NORAD_CAT_ID":63809,"ELEMENT_SET_NO":999,"REV_AT_EPOCH":4855,"BSTAR":0.0010401232,"MEAN_MOTION_DOT":0.00028491,"MEAN_MOTION_DDOT":0}]
